STARLINK-35814          
1 66576U 25268V   26068.13428133  .00040099  00000+0  14587-2 0  9998
2 66576  42.9983 350.2959 0001106   6.0102 354.0763 15.27582152 17876
KUIPER-00204            
1 67145U 25301N   26068.39760395  .00020516  00000+0  79568-3 0  9999
2 67145  51.8870  71.6415 0003071 354.8934   5.2016 15.26088400 13737
