[{"OBJECT_NAME":"STARLINK-35814","OBJECT_ID":"2025-268V","EPOCH":"2026-03-09T03:13:21.906912","MEAN_MOTION":15.27582152,"ECCENTRICITY":0.00011063,"INCLINATION":42.9983,"RA_OF_ASC_NODE":350.2959,"ARG_OF_PERICENTER":6.0102,"MEAN_ANOMALY":354.0763,"EPHEMERIS_TYPE":0,"CLASSIFICATION_TYPE":"U","NORAD_CAT_ID":66576,"ELEMENT_SET_NO":999,"REV_AT_EPOCH":1787,"BSTAR":0.001458703,"MEAN_MOTION_DOT":0.00040099,"MEAN_MOTION_DDOT":0},{"OBJECT_NAME":"KUIPER-00204","OBJECT_ID":"2025-301N","EPOCH":"2026-03-09T09:32:32.981280","MEAN_MOTION":15.260884,"ECCENTRICITY":0.00030716,"INCLINATION":51.887,"RA_OF_ASC_NODE":71.6415,"ARG_OF_PERICENTER":354.8934,"MEAN_ANOMALY":5.2016,"EPHEMERIS_TYPE":0,"CLASSIFICATION_TYPE":"U","NORAD_CAT_ID":67145,"ELEMENT_SET_NO":999,"REV_AT_EPOCH":1373,"BSTAR":0.00079568218,"MEAN_MOTION_DOT":0.00020516,"MEAN_MOTION_DDOT":0}]
